[{"OBJECT_NAME":"POLYITAN-1","OBJECT_ID":"2014-033AJ","EPOCH":"2026-03-09T22:27:50.258304","MEAN_MOTION":15.29568085,"ECCENTRICITY":0.00093607,"INCLINATION":98.1053,"RA_OF_ASC_NODE":86.0432,"ARG_OF_PERICENTER":127.248,"MEAN_ANOMALY":232.9614,"EPHEMERIS_TYPE":0,"CLASSIFICATION_TYPE":"U","NORAD_CAT_ID":40042,"ELEMENT_SET_NO":999,"REV_AT_EPOCH":63840,"BSTAR":0.00083772474,"MEAN_MOTION_DOT":0.00024003,"MEAN_MOTION_DDOT":0},{"OBJECT_NAME":"STARLINK-35123","OBJECT_ID":"2025-210N","EPOCH":"2026-03-09T22:00:16.782624","MEAN_MOTION":15.30197912,"ECCENTRICITY":7.525e-5,"INCLINATION":53.1606,"RA_OF_ASC_NODE":306.1779,"ARG_OF_PERICENTER":130.4515,"MEAN_ANOMALY":229.6551,"EPHEMERIS_TYPE":0,"CLASSIFICATION_TYPE":"U","NORAD_CAT_ID":65634,"ELEMENT_SET_NO":999,"REV_AT_EPOCH":2776,"BSTAR":0.0013000146,"MEAN_MOTION_DOT":0.0003834,"MEAN_MOTION_DDOT":0}]
